{
  "type": "FeatureCollection",
  "source": "Eurostat searoute/marnet 2025 network; generalized edges checked against Natural Earth 1:10m land and locally repaired over water.",
  "generatedAt": "2026-06-28T11:50:14.291Z",
  "features": [
    {
      "type": "Feature",
      "properties": {
        "id": "gulfOil",
        "mode": "strait",
        "role": "oil",
        "weight": 4,
        "label": "沙特原油至印度",
        "dashArray": "",
        "lengthNm": 1351,
        "source": "searoute-ts 2.0 / Eurostat marnet 2025",
        "validation": {
          "coastline": "Natural Earth 1:10m land",
          "repairedEdges": 1,
          "canalEdges": 0,
          "status": "water-only-except-declared-canals"
        }
      },
      "geometry": {
        "type": "LineString",
        "coordinates": [
          [
            50.675,
            26.305
          ],
          [
            51.6,
            26.3
          ],
          [
            53.2925,
            26.465
          ],
          [
            53.94875,
            26.41625
          ],
          [
            56.355,
            26.4475
          ],
          [
            56.43,
            26.395
          ],
          [
            56.505,
            26.395
          ],
          [
            56.905,
            25.995
          ],
          [
            56.905,
            25.92
          ],
          [
            57.28,
            25.545
          ],
          [
            57.28,
            25.495
          ],
          [
            57.305,
            25.47
          ],
          [
            58.9425,
            24.045
          ],
          [
            61.555,
            23.455
          ],
          [
            64.14,
            22.91
          ],
          [
            65.725,
            22.57
          ],
          [
            67,
            22.3
          ],
          [
            69.165,
            21.055
          ],
          [
            72.4,
            19
          ],
          [
            72.8,
            18.855
          ]
        ]
      }
    },
    {
      "type": "Feature",
      "properties": {
        "id": "iraqIndia",
        "mode": "strait",
        "role": "oil",
        "weight": 3,
        "label": "伊拉克原油至印度",
        "dashArray": "",
        "lengthNm": 2587,
        "source": "searoute-ts 2.0 / Eurostat marnet 2025",
        "validation": {
          "coastline": "Natural Earth 1:10m land",
          "repairedEdges": 3,
          "canalEdges": 0,
          "status": "water-only-except-declared-canals"
        }
      },
      "geometry": {
        "type": "LineString",
        "coordinates": [
          [
            48.84,
            29.7
          ],
          [
            48.839375,
            29.96125
          ],
          [
            49.854805,
            28.983047
          ],
          [
            53.2925,
            26.465
          ],
          [
            53.94875,
            26.41625
          ],
          [
            56.355,
            26.4475
          ],
          [
            56.43,
            26.395
          ],
          [
            56.505,
            26.395
          ],
          [
            56.905,
            25.995
          ],
          [
            56.905,
            25.92
          ],
          [
            57.28,
            25.545
          ],
          [
            57.28,
            25.495
          ],
          [
            57.305,
            25.47
          ],
          [
            58.9425,
            24.045
          ],
          [
            60.4,
            22.7
          ],
          [
            61.655,
            21.5
          ],
          [
            63.155,
            20.065
          ],
          [
            65.095,
            18.14
          ],
          [
            65.815,
            17.41
          ],
          [
            66.53,
            16.68
          ],
          [
            68.8,
            14.68
          ],
          [
            70,
            13.765
          ],
          [
            73.05,
            10.725
          ],
          [
            73.125,
            10.7
          ],
          [
            73.35,
            10.575
          ],
          [
            73.4,
            10.575
          ],
          [
            73.625,
            10.45
          ],
          [
            73.675,
            10.45
          ],
          [
            73.9,
            10.325
          ],
          [
            73.95,
            10.325
          ],
          [
            74.175,
            10.2
          ],
          [
            74.225,
            10.2
          ],
          [
            74.45,
            10.075
          ],
          [
            74.5,
            10.075
          ],
          [
            74.725,
            9.95
          ],
          [
            74.775,
            9.95
          ],
          [
            75.0,
            9.825
          ],
          [
            75.05,
            9.825
          ],
          [
            75.075,
            9.8
          ],
          [
            75.25,
            9.725
          ],
          [
            75.275,
            9.7
          ],
          [
            75.3,
            9.7
          ],
          [
            77,
            8
          ],
          [
            78.063125,
            7.211875
          ],
          [
            78.313125,
            7.461875
          ],
          [
            78.313125,
            7.911875
          ],
          [
            79.788125,
            9.386875
          ],
          [
            79.788125,
            9.611875
          ],
          [
            79.813125,
            9.636875
          ],
          [
            79.813125,
            9.711875
          ],
          [
            79.838125,
            9.736875
          ],
          [
            79.838125,
            9.761875
          ],
          [
            80.613125,
            10.536875
          ],
          [
            80.613125,
            10.586875
          ],
          [
            80.738125,
            10.811875
          ],
          [
            80.738125,
            10.861875
          ],
          [
            80.863125,
            11.086875
          ],
          [
            80.863125,
            11.136875
          ],
          [
            80.988125,
            11.361875
          ],
          [
            80.988125,
            11.411875
          ],
          [
            81.113125,
            11.636875
          ],
          [
            81.113125,
            11.686875
          ],
          [
            81.213125,
            11.861875
          ],
          [
            81.213125,
            11.911875
          ],
          [
            81.238125,
            11.936875
          ],
          [
            81.23,
            11.93
          ],
          [
            81,
            13
          ],
          [
            80.35,
            13.05
          ]
        ]
      }
    },
    {
      "type": "Feature",
      "properties": {
        "id": "qatarLng",
        "mode": "strait",
        "role": "gas",
        "weight": 3,
        "label": "卡塔尔 LNG 至东亚",
        "dashArray": "7 9",
        "lengthNm": 6211,
        "source": "searoute-ts 2.0 / Eurostat marnet 2025",
        "validation": {
          "coastline": "Natural Earth 1:10m land",
          "repairedEdges": 9,
          "canalEdges": 0,
          "status": "water-only-except-declared-canals"
        }
      },
      "geometry": {
        "type": "LineString",
        "coordinates": [
          [
            51.6,
            26.3
          ],
          [
            53.2925,
            26.465
          ],
          [
            53.94875,
            26.41625
          ],
          [
            56.355,
            26.4475
          ],
          [
            56.43,
            26.395
          ],
          [
            56.505,
            26.395
          ],
          [
            56.905,
            25.995
          ],
          [
            56.905,
            25.92
          ],
          [
            57.28,
            25.545
          ],
          [
            57.28,
            25.495
          ],
          [
            57.305,
            25.47
          ],
          [
            58.9425,
            24.045
          ],
          [
            60.4,
            22.7
          ],
          [
            61.655,
            21.5
          ],
          [
            63.155,
            20.065
          ],
          [
            65.095,
            18.14
          ],
          [
            65.815,
            17.41
          ],
          [
            66.53,
            16.68
          ],
          [
            68.8,
            14.68
          ],
          [
            70,
            13.765
          ],
          [
            73.05,
            10.725
          ],
          [
            73.125,
            10.7
          ],
          [
            73.35,
            10.575
          ],
          [
            73.4,
            10.575
          ],
          [
            73.625,
            10.45
          ],
          [
            73.675,
            10.45
          ],
          [
            73.9,
            10.325
          ],
          [
            73.95,
            10.325
          ],
          [
            74.175,
            10.2
          ],
          [
            74.225,
            10.2
          ],
          [
            74.45,
            10.075
          ],
          [
            74.5,
            10.075
          ],
          [
            74.725,
            9.95
          ],
          [
            74.775,
            9.95
          ],
          [
            75.0,
            9.825
          ],
          [
            75.05,
            9.825
          ],
          [
            75.075,
            9.8
          ],
          [
            75.25,
            9.725
          ],
          [
            75.275,
            9.7
          ],
          [
            75.3,
            9.7
          ],
          [
            77,
            8
          ],
          [
            78.063125,
            7.211875
          ],
          [
            79.5925,
            6.045
          ],
          [
            80.1,
            5.8
          ],
          [
            81.949023,
            6.088516
          ],
          [
            94,
            6.7
          ],
          [
            97,
            7
          ],
          [
            101.198125,
            3.055937
          ],
          [
            101.198125,
            2.93
          ],
          [
            101.273125,
            2.855
          ],
          [
            101.273125,
            2.83
          ],
          [
            101.573125,
            2.53
          ],
          [
            101.673125,
            2.53
          ],
          [
            102.223125,
            1.98
          ],
          [
            102.273125,
            1.98
          ],
          [
            102.423125,
            1.83
          ],
          [
            102.448125,
            1.83
          ],
          [
            102.673125,
            1.705
          ],
          [
            102.723125,
            1.705
          ],
          [
            102.748125,
            1.68
          ],
          [
            102.773125,
            1.68
          ],
          [
            102.798125,
            1.655
          ],
          [
            102.823125,
            1.655
          ],
          [
            102.848125,
            1.63
          ],
          [
            102.9675,
            1.58
          ],
          [
            102.9925,
            1.54875
          ],
          [
            103.0175,
            1.54875
          ],
          [
            103.1425,
            1.47375
          ],
          [
            103.1925,
            1.47375
          ],
          [
            103.2175,
            1.44875
          ],
          [
            103.2425,
            1.44875
          ],
          [
            103.4175,
            1.27375
          ],
          [
            103.4925,
            1.27375
          ],
          [
            103.5175,
            1.24875
          ],
          [
            103.6675,
            1.24875
          ],
          [
            103.6925,
            1.22375
          ],
          [
            103.725,
            1.22375
          ],
          [
            103.825,
            1.22375
          ],
          [
            103.95,
            1.29875
          ],
          [
            104.075,
            1.29875
          ],
          [
            104.1,
            1.32375
          ],
          [
            104.225,
            1.32375
          ],
          [
            104.25,
            1.34875
          ],
          [
            104.275,
            1.34875
          ],
          [
            104.4,
            1.47375
          ],
          [
            104.425,
            1.47375
          ],
          [
            104.5,
            1.54875
          ],
          [
            104.525,
            1.54875
          ],
          [
            104.55,
            1.57375
          ],
          [
            104.6,
            1.57375
          ],
          [
            104.619766,
            1.608203
          ],
          [
            106.47,
            5.725
          ],
          [
            110.075,
            11.44
          ],
          [
            110.300234,
            12.173516
          ],
          [
            111.83,
            16.38
          ],
          [
            112.045,
            16.955
          ],
          [
            113.2,
            19.62
          ],
          [
            114.18125,
            21.735
          ],
          [
            116.97,
            22.985
          ],
          [
            116.995,
            23
          ],
          [
            118.23125,
            24.365938
          ],
          [
            118.33125,
            24.365938
          ],
          [
            118.35625,
            24.390938
          ],
          [
            118.45625,
            24.390938
          ],
          [
            118.55625,
            24.490938
          ],
          [
            118.63125,
            24.515938
          ],
          [
            118.70625,
            24.590938
          ],
          [
            118.95625,
            24.590938
          ],
          [
            119.50625,
            25.140938
          ],
          [
            119.55625,
            25.140938
          ],
          [
            119.90625,
            25.490938
          ],
          [
            119.98125,
            25.515938
          ],
          [
            120.00625,
            25.540938
          ],
          [
            120.05625,
            25.540938
          ],
          [
            120.0875,
            25.56125
          ],
          [
            121.52,
            27.665
          ],
          [
            121.965,
            28.035
          ],
          [
            122.9125,
            29.0275
          ],
          [
            122.96,
            29.9
          ],
          [
            123.27,
            30.91375
          ],
          [
            123.66,
            31.315
          ],
          [
            124.61625,
            32.37375
          ],
          [
            124.86625,
            32.62375
          ],
          [
            125.31625,
            32.62375
          ],
          [
            125.99125,
            33.29875
          ],
          [
            126.16625,
            33.37375
          ],
          [
            126.19125,
            33.39875
          ],
          [
            126.21625,
            33.39875
          ],
          [
            126.31625,
            33.49875
          ],
          [
            126.39125,
            33.49875
          ],
          [
            126.41625,
            33.52375
          ],
          [
            126.46625,
            33.52375
          ],
          [
            126.49125,
            33.54875
          ],
          [
            126.54,
            33.545
          ],
          [
            126.865,
            33.87
          ],
          [
            126.89,
            33.87
          ],
          [
            126.915,
            33.895
          ],
          [
            127.215,
            33.895
          ],
          [
            127.465,
            34.145
          ],
          [
            127.49,
            34.145
          ],
          [
            127.515,
            34.17
          ],
          [
            127.565,
            34.17
          ],
          [
            127.6,
            34.2
          ],
          [
            127.75,
            34.35
          ],
          [
            128.35,
            34.35
          ],
          [
            128.975,
            34.975
          ],
          [
            129.0,
            34.975
          ],
          [
            129.025,
            35.0
          ],
          [
            129.075,
            35.0
          ],
          [
            129.09875,
            35.02625
          ],
          [
            129.1,
            35.03
          ]
        ]
      }
    },
    {
      "type": "Feature",
      "properties": {
        "id": "indiaWest",
        "mode": "world",
        "role": "oil",
        "weight": 3.2,
        "label": "海湾原油与成品油至印度",
        "dashArray": "",
        "lengthNm": 1045,
        "source": "searoute-ts 2.0 / Eurostat marnet 2025",
        "validation": {
          "coastline": "Natural Earth 1:10m land",
          "repairedEdges": 1,
          "canalEdges": 0,
          "status": "water-only-except-declared-canals"
        }
      },
      "geometry": {
        "type": "LineString",
        "coordinates": [
          [
            56.355,
            26.4475
          ],
          [
            56.43,
            26.395
          ],
          [
            56.505,
            26.395
          ],
          [
            56.905,
            25.995
          ],
          [
            56.905,
            25.92
          ],
          [
            57.28,
            25.545
          ],
          [
            57.28,
            25.495
          ],
          [
            57.305,
            25.47
          ],
          [
            58.9425,
            24.045
          ],
          [
            61.555,
            23.455
          ],
          [
            64.14,
            22.91
          ],
          [
            65.725,
            22.57
          ],
          [
            67,
            22.3
          ],
          [
            69.165,
            21.055
          ],
          [
            72.4,
            19
          ],
          [
            72.8,
            18.855
          ]
        ]
      }
    },
    {
      "type": "Feature",
      "properties": {
        "id": "china",
        "mode": "world",
        "role": "oil",
        "weight": 2.4,
        "label": "海湾能源至中国",
        "dashArray": "8 9",
        "lengthNm": 4827,
        "source": "searoute-ts 2.0 / Eurostat marnet 2025",
        "validation": {
          "coastline": "Natural Earth 1:10m land",
          "repairedEdges": 5,
          "canalEdges": 0,
          "status": "water-only-except-declared-canals"
        }
      },
      "geometry": {
        "type": "LineString",
        "coordinates": [
          [
            56.355,
            26.4475
          ],
          [
            56.43,
            26.395
          ],
          [
            56.505,
            26.395
          ],
          [
            56.905,
            25.995
          ],
          [
            56.905,
            25.92
          ],
          [
            57.28,
            25.545
          ],
          [
            57.28,
            25.495
          ],
          [
            57.305,
            25.47
          ],
          [
            58.9425,
            24.045
          ],
          [
            60.4,
            22.7
          ],
          [
            61.655,
            21.5
          ],
          [
            63.155,
            20.065
          ],
          [
            65.095,
            18.14
          ],
          [
            65.815,
            17.41
          ],
          [
            66.53,
            16.68
          ],
          [
            68.8,
            14.68
          ],
          [
            70,
            13.765
          ],
          [
            73.05,
            10.725
          ],
          [
            73.125,
            10.7
          ],
          [
            73.35,
            10.575
          ],
          [
            73.4,
            10.575
          ],
          [
            73.625,
            10.45
          ],
          [
            73.675,
            10.45
          ],
          [
            73.9,
            10.325
          ],
          [
            73.95,
            10.325
          ],
          [
            74.175,
            10.2
          ],
          [
            74.225,
            10.2
          ],
          [
            74.45,
            10.075
          ],
          [
            74.5,
            10.075
          ],
          [
            74.725,
            9.95
          ],
          [
            74.775,
            9.95
          ],
          [
            75.0,
            9.825
          ],
          [
            75.05,
            9.825
          ],
          [
            75.075,
            9.8
          ],
          [
            75.25,
            9.725
          ],
          [
            75.275,
            9.7
          ],
          [
            75.3,
            9.7
          ],
          [
            77,
            8
          ],
          [
            78.063125,
            7.211875
          ],
          [
            79.5925,
            6.045
          ],
          [
            80.1,
            5.8
          ],
          [
            81.949023,
            6.088516
          ],
          [
            94,
            6.7
          ],
          [
            97,
            7
          ],
          [
            101.198125,
            3.055937
          ],
          [
            101.198125,
            2.93
          ],
          [
            101.273125,
            2.855
          ],
          [
            101.273125,
            2.83
          ],
          [
            101.573125,
            2.53
          ],
          [
            101.673125,
            2.53
          ],
          [
            102.223125,
            1.98
          ],
          [
            102.273125,
            1.98
          ],
          [
            102.423125,
            1.83
          ],
          [
            102.448125,
            1.83
          ],
          [
            102.673125,
            1.705
          ],
          [
            102.723125,
            1.705
          ],
          [
            102.748125,
            1.68
          ],
          [
            102.773125,
            1.68
          ],
          [
            102.798125,
            1.655
          ],
          [
            102.823125,
            1.655
          ],
          [
            102.848125,
            1.63
          ],
          [
            102.9675,
            1.58
          ],
          [
            102.9925,
            1.54875
          ],
          [
            103.0175,
            1.54875
          ],
          [
            103.1425,
            1.47375
          ],
          [
            103.1925,
            1.47375
          ],
          [
            103.2175,
            1.44875
          ],
          [
            103.2425,
            1.44875
          ],
          [
            103.4175,
            1.27375
          ],
          [
            103.4925,
            1.27375
          ],
          [
            103.5175,
            1.24875
          ],
          [
            103.6675,
            1.24875
          ],
          [
            103.6925,
            1.22375
          ],
          [
            103.725,
            1.22375
          ],
          [
            103.825,
            1.22375
          ],
          [
            103.95,
            1.29875
          ],
          [
            104.075,
            1.29875
          ],
          [
            104.1,
            1.32375
          ],
          [
            104.225,
            1.32375
          ],
          [
            104.25,
            1.34875
          ],
          [
            104.275,
            1.34875
          ],
          [
            104.4,
            1.47375
          ],
          [
            104.425,
            1.47375
          ],
          [
            104.5,
            1.54875
          ],
          [
            104.525,
            1.54875
          ],
          [
            104.55,
            1.57375
          ],
          [
            104.6,
            1.57375
          ],
          [
            104.619766,
            1.608203
          ],
          [
            106.47,
            5.725
          ],
          [
            110.075,
            11.44
          ],
          [
            110.300234,
            12.173516
          ],
          [
            111.83,
            16.38
          ],
          [
            112.045,
            16.955
          ],
          [
            113.2,
            19.62
          ],
          [
            114.18125,
            21.735
          ],
          [
            114.35,
            22.15
          ]
        ]
      }
    },
    {
      "type": "Feature",
      "properties": {
        "id": "japanKorea",
        "mode": "world",
        "role": "gas",
        "weight": 2.4,
        "label": "卡塔尔 LNG 至日本与韩国",
        "dashArray": "7 9",
        "lengthNm": 5954,
        "source": "searoute-ts 2.0 / Eurostat marnet 2025",
        "validation": {
          "coastline": "Natural Earth 1:10m land",
          "repairedEdges": 9,
          "canalEdges": 0,
          "status": "water-only-except-declared-canals"
        }
      },
      "geometry": {
        "type": "LineString",
        "coordinates": [
          [
            56.355,
            26.4475
          ],
          [
            56.43,
            26.395
          ],
          [
            56.505,
            26.395
          ],
          [
            56.905,
            25.995
          ],
          [
            56.905,
            25.92
          ],
          [
            57.28,
            25.545
          ],
          [
            57.28,
            25.495
          ],
          [
            57.305,
            25.47
          ],
          [
            58.9425,
            24.045
          ],
          [
            60.4,
            22.7
          ],
          [
            61.655,
            21.5
          ],
          [
            63.155,
            20.065
          ],
          [
            65.095,
            18.14
          ],
          [
            65.815,
            17.41
          ],
          [
            66.53,
            16.68
          ],
          [
            68.8,
            14.68
          ],
          [
            70,
            13.765
          ],
          [
            73.05,
            10.725
          ],
          [
            73.125,
            10.7
          ],
          [
            73.35,
            10.575
          ],
          [
            73.4,
            10.575
          ],
          [
            73.625,
            10.45
          ],
          [
            73.675,
            10.45
          ],
          [
            73.9,
            10.325
          ],
          [
            73.95,
            10.325
          ],
          [
            74.175,
            10.2
          ],
          [
            74.225,
            10.2
          ],
          [
            74.45,
            10.075
          ],
          [
            74.5,
            10.075
          ],
          [
            74.725,
            9.95
          ],
          [
            74.775,
            9.95
          ],
          [
            75.0,
            9.825
          ],
          [
            75.05,
            9.825
          ],
          [
            75.075,
            9.8
          ],
          [
            75.25,
            9.725
          ],
          [
            75.275,
            9.7
          ],
          [
            75.3,
            9.7
          ],
          [
            77,
            8
          ],
          [
            78.063125,
            7.211875
          ],
          [
            79.5925,
            6.045
          ],
          [
            80.1,
            5.8
          ],
          [
            81.949023,
            6.088516
          ],
          [
            94,
            6.7
          ],
          [
            97,
            7
          ],
          [
            101.198125,
            3.055937
          ],
          [
            101.198125,
            2.93
          ],
          [
            101.273125,
            2.855
          ],
          [
            101.273125,
            2.83
          ],
          [
            101.573125,
            2.53
          ],
          [
            101.673125,
            2.53
          ],
          [
            102.223125,
            1.98
          ],
          [
            102.273125,
            1.98
          ],
          [
            102.423125,
            1.83
          ],
          [
            102.448125,
            1.83
          ],
          [
            102.673125,
            1.705
          ],
          [
            102.723125,
            1.705
          ],
          [
            102.748125,
            1.68
          ],
          [
            102.773125,
            1.68
          ],
          [
            102.798125,
            1.655
          ],
          [
            102.823125,
            1.655
          ],
          [
            102.848125,
            1.63
          ],
          [
            102.9675,
            1.58
          ],
          [
            102.9925,
            1.54875
          ],
          [
            103.0175,
            1.54875
          ],
          [
            103.1425,
            1.47375
          ],
          [
            103.1925,
            1.47375
          ],
          [
            103.2175,
            1.44875
          ],
          [
            103.2425,
            1.44875
          ],
          [
            103.4175,
            1.27375
          ],
          [
            103.4925,
            1.27375
          ],
          [
            103.5175,
            1.24875
          ],
          [
            103.6675,
            1.24875
          ],
          [
            103.6925,
            1.22375
          ],
          [
            103.725,
            1.22375
          ],
          [
            103.825,
            1.22375
          ],
          [
            103.95,
            1.29875
          ],
          [
            104.075,
            1.29875
          ],
          [
            104.1,
            1.32375
          ],
          [
            104.225,
            1.32375
          ],
          [
            104.25,
            1.34875
          ],
          [
            104.275,
            1.34875
          ],
          [
            104.4,
            1.47375
          ],
          [
            104.425,
            1.47375
          ],
          [
            104.5,
            1.54875
          ],
          [
            104.525,
            1.54875
          ],
          [
            104.55,
            1.57375
          ],
          [
            104.6,
            1.57375
          ],
          [
            104.619766,
            1.608203
          ],
          [
            106.47,
            5.725
          ],
          [
            110.075,
            11.44
          ],
          [
            110.300234,
            12.173516
          ],
          [
            111.83,
            16.38
          ],
          [
            112.045,
            16.955
          ],
          [
            113.2,
            19.62
          ],
          [
            114.18125,
            21.735
          ],
          [
            116.97,
            22.985
          ],
          [
            116.995,
            23
          ],
          [
            118.23125,
            24.365938
          ],
          [
            118.33125,
            24.365938
          ],
          [
            118.35625,
            24.390938
          ],
          [
            118.45625,
            24.390938
          ],
          [
            118.55625,
            24.490938
          ],
          [
            118.63125,
            24.515938
          ],
          [
            118.70625,
            24.590938
          ],
          [
            118.95625,
            24.590938
          ],
          [
            119.50625,
            25.140938
          ],
          [
            119.55625,
            25.140938
          ],
          [
            119.90625,
            25.490938
          ],
          [
            119.98125,
            25.515938
          ],
          [
            120.00625,
            25.540938
          ],
          [
            120.05625,
            25.540938
          ],
          [
            120.0875,
            25.56125
          ],
          [
            121.52,
            27.665
          ],
          [
            121.965,
            28.035
          ],
          [
            122.9125,
            29.0275
          ],
          [
            122.96,
            29.9
          ],
          [
            123.27,
            30.91375
          ],
          [
            123.66,
            31.315
          ],
          [
            124.61625,
            32.37375
          ],
          [
            124.86625,
            32.62375
          ],
          [
            125.31625,
            32.62375
          ],
          [
            125.99125,
            33.29875
          ],
          [
            126.16625,
            33.37375
          ],
          [
            126.19125,
            33.39875
          ],
          [
            126.21625,
            33.39875
          ],
          [
            126.31625,
            33.49875
          ],
          [
            126.39125,
            33.49875
          ],
          [
            126.41625,
            33.52375
          ],
          [
            126.46625,
            33.52375
          ],
          [
            126.49125,
            33.54875
          ],
          [
            126.54,
            33.545
          ],
          [
            126.865,
            33.87
          ],
          [
            126.89,
            33.87
          ],
          [
            126.915,
            33.895
          ],
          [
            127.215,
            33.895
          ],
          [
            127.465,
            34.145
          ],
          [
            127.49,
            34.145
          ],
          [
            127.515,
            34.17
          ],
          [
            127.565,
            34.17
          ],
          [
            127.6,
            34.2
          ],
          [
            127.75,
            34.35
          ],
          [
            128.35,
            34.35
          ],
          [
            128.975,
            34.975
          ],
          [
            129.0,
            34.975
          ],
          [
            129.025,
            35.0
          ],
          [
            129.075,
            35.0
          ],
          [
            129.09875,
            35.02625
          ],
          [
            129.1,
            35.03
          ]
        ]
      }
    },
    {
      "type": "Feature",
      "properties": {
        "id": "west",
        "mode": "world",
        "role": "oil",
        "weight": 2.5,
        "label": "海湾能源至欧洲",
        "dashArray": "",
        "lengthNm": 6166,
        "source": "searoute-ts 2.0 / Eurostat marnet 2025",
        "validation": {
          "coastline": "Natural Earth 1:10m land",
          "repairedEdges": 7,
          "canalEdges": 2,
          "status": "water-only-except-declared-canals"
        }
      },
      "geometry": {
        "type": "LineString",
        "coordinates": [
          [
            56.355,
            26.4475
          ],
          [
            56.43,
            26.395
          ],
          [
            56.505,
            26.395
          ],
          [
            56.905,
            25.995
          ],
          [
            56.905,
            25.92
          ],
          [
            57.28,
            25.545
          ],
          [
            57.28,
            25.495
          ],
          [
            57.305,
            25.47
          ],
          [
            58.9425,
            24.045
          ],
          [
            60.4,
            22.7
          ],
          [
            59,
            20
          ],
          [
            56.025,
            17.025
          ],
          [
            55.95,
            17.0
          ],
          [
            55.875,
            16.95
          ],
          [
            55.825,
            16.95
          ],
          [
            55.6,
            16.825
          ],
          [
            55.55,
            16.825
          ],
          [
            55.325,
            16.7
          ],
          [
            55.275,
            16.7
          ],
          [
            55.05,
            16.575
          ],
          [
            55.0,
            16.575
          ],
          [
            54.775,
            16.45
          ],
          [
            54.725,
            16.45
          ],
          [
            54.5,
            16.325
          ],
          [
            54.45,
            16.325
          ],
          [
            54.425,
            16.3
          ],
          [
            54.4,
            16.3
          ],
          [
            54.275,
            16.225
          ],
          [
            54.2,
            16.2
          ],
          [
            44.797187,
            12.083437
          ],
          [
            43.384922,
            12.626797
          ],
          [
            42.931719,
            13.161406
          ],
          [
            42.5375,
            13.93
          ],
          [
            41.845,
            14.9075
          ],
          [
            41.333125,
            16.080625
          ],
          [
            39.335,
            19.91
          ],
          [
            38.5675,
            21.2475
          ],
          [
            35.14625,
            25.55375
          ],
          [
            34.525,
            26.955
          ],
          [
            34.2525,
            27.595
          ],
          [
            33.555,
            28.145
          ],
          [
            32.9275,
            29.05875
          ],
          [
            32.475625,
            29.70875
          ],
          [
            32.302422,
            31.474844
          ],
          [
            30.63,
            32.190625
          ],
          [
            28.79875,
            32.65625
          ],
          [
            27.385,
            32.965
          ],
          [
            26.22625,
            33.51
          ],
          [
            25.16,
            33.56
          ],
          [
            23.94,
            33.89
          ],
          [
            23.365,
            33.8975
          ],
          [
            22.63,
            34.24
          ],
          [
            21.47,
            34.555
          ],
          [
            20.23,
            34.885
          ],
          [
            17.968125,
            35.618906
          ],
          [
            16.91125,
            36.065
          ],
          [
            16.193359,
            36.34
          ],
          [
            15.139585,
            36.333912
          ],
          [
            14.270904,
            36.337804
          ],
          [
            13.361899,
            36.445846
          ],
          [
            12.833621,
            36.888984
          ],
          [
            12.292808,
            37.579055
          ],
          [
            11.397354,
            37.949727
          ],
          [
            10.858716,
            38.003062
          ],
          [
            10.004844,
            38.133281
          ],
          [
            8.524717,
            38.031367
          ],
          [
            7.417422,
            37.676133
          ],
          [
            6.665508,
            37.4325
          ],
          [
            5.84005,
            37.264072
          ],
          [
            5.33,
            37.16
          ],
          [
            3.178281,
            36.942656
          ],
          [
            0.52,
            36.50375
          ],
          [
            -0.422031,
            36.475469
          ],
          [
            -2.61125,
            35.966875
          ],
          [
            -3.1125,
            35.9125
          ],
          [
            -3.746934,
            35.849805
          ],
          [
            -5.423243952255126,
            35.92921929131445
          ],
          [
            -6.207661,
            35.779023
          ],
          [
            -6.731768,
            35.691895
          ],
          [
            -7.493584,
            36.213281
          ],
          [
            -8.455176,
            36.919277
          ],
          [
            -8.48467,
            36.944277
          ],
          [
            -8.50967,
            36.944277
          ],
          [
            -8.55967,
            36.994277
          ],
          [
            -8.98467,
            36.994277
          ],
          [
            -9.00967,
            37.019277
          ],
          [
            -9.00967,
            37.469277
          ],
          [
            -9.05967,
            37.544277
          ],
          [
            -9.05967,
            37.594277
          ],
          [
            -9.18467,
            37.819277
          ],
          [
            -9.18467,
            37.846523
          ],
          [
            -9.633242,
            38.541367
          ],
          [
            -9.25,
            40.012637
          ],
          [
            -9.151123,
            41.083125
          ],
          [
            -9.184805,
            41.959844
          ],
          [
            -8.984805,
            42.159844
          ],
          [
            -8.984805,
            42.184844
          ],
          [
            -8.959805,
            42.209844
          ],
          [
            -8.959805,
            42.484844
          ],
          [
            -8.934805,
            42.509844
          ],
          [
            -8.841182,
            42.511924
          ],
          [
            -9.01624,
            42.511924
          ],
          [
            -9.09124,
            42.586924
          ],
          [
            -9.09124,
            42.686924
          ],
          [
            -9.31624,
            42.911924
          ],
          [
            -9.31624,
            42.936924
          ],
          [
            -9.29124,
            42.961924
          ],
          [
            -9.29124,
            43.061924
          ],
          [
            -9.24124,
            43.111924
          ],
          [
            -9.24124,
            43.161924
          ],
          [
            -8.89124,
            43.511924
          ],
          [
            -8.86624,
            43.511924
          ],
          [
            -8.84124,
            43.537256
          ],
          [
            -8.449809,
            43.849758
          ],
          [
            -8.007207,
            44.213198
          ],
          [
            -7.58,
            44.65
          ],
          [
            -6.9725,
            44.9375
          ],
          [
            -5.749062,
            47.368203
          ],
          [
            -5.514518,
            48.098406
          ],
          [
            -4.907666,
            48.509565
          ],
          [
            -4.320795,
            48.798049
          ],
          [
            -3.739668,
            49.126465
          ],
          [
            -3.07748,
            49.309648
          ],
          [
            -2.92748,
            49.309648
          ],
          [
            -2.87748,
            49.359648
          ],
          [
            -2.70248,
            49.359648
          ],
          [
            -2.67748,
            49.384648
          ],
          [
            -2.52748,
            49.384648
          ],
          [
            -2.45248,
            49.434648
          ],
          [
            -2.32748,
            49.459648
          ],
          [
            -2.27748,
            49.509648
          ],
          [
            -2.25248,
            49.509648
          ],
          [
            -2.22748,
            49.534648
          ],
          [
            -2.17748,
            49.534648
          ],
          [
            -2.140034,
            49.570364
          ],
          [
            -2.115034,
            49.570364
          ],
          [
            -1.940034,
            49.745364
          ],
          [
            -1.315034,
            49.745364
          ],
          [
            -1.290034,
            49.770364
          ],
          [
            -1.301715,
            49.758743
          ],
          [
            -0.598296,
            50.176461
          ],
          [
            0.108296,
            50.576542
          ],
          [
            0.627853,
            50.744622
          ],
          [
            1.480255,
            50.937313
          ],
          [
            2.214913,
            51.345472
          ],
          [
            2.782544,
            51.548596
          ],
          [
            3.382466,
            51.914291
          ],
          [
            3.92,
            51.93
          ]
        ]
      }
    },
    {
      "type": "Feature",
      "properties": {
        "id": "americas",
        "mode": "world",
        "role": "oil",
        "weight": 2,
        "label": "海湾成品油至美洲",
        "dashArray": "6 8",
        "lengthNm": 9536,
        "source": "searoute-ts 2.0 / Eurostat marnet 2025",
        "validation": {
          "coastline": "Natural Earth 1:10m land",
          "repairedEdges": 3,
          "canalEdges": 2,
          "status": "water-only-except-declared-canals"
        }
      },
      "geometry": {
        "type": "LineString",
        "coordinates": [
          [
            56.355,
            26.4475
          ],
          [
            56.43,
            26.395
          ],
          [
            56.505,
            26.395
          ],
          [
            56.905,
            25.995
          ],
          [
            56.905,
            25.92
          ],
          [
            57.28,
            25.545
          ],
          [
            57.28,
            25.495
          ],
          [
            57.305,
            25.47
          ],
          [
            58.9425,
            24.045
          ],
          [
            60.4,
            22.7
          ],
          [
            59,
            20
          ],
          [
            56.025,
            17.025
          ],
          [
            55.95,
            17.0
          ],
          [
            55.875,
            16.95
          ],
          [
            55.825,
            16.95
          ],
          [
            55.6,
            16.825
          ],
          [
            55.55,
            16.825
          ],
          [
            55.325,
            16.7
          ],
          [
            55.275,
            16.7
          ],
          [
            55.05,
            16.575
          ],
          [
            55.0,
            16.575
          ],
          [
            54.775,
            16.45
          ],
          [
            54.725,
            16.45
          ],
          [
            54.5,
            16.325
          ],
          [
            54.45,
            16.325
          ],
          [
            54.425,
            16.3
          ],
          [
            54.4,
            16.3
          ],
          [
            54.275,
            16.225
          ],
          [
            54.2,
            16.2
          ],
          [
            44.797187,
            12.083437
          ],
          [
            43.384922,
            12.626797
          ],
          [
            42.931719,
            13.161406
          ],
          [
            42.5375,
            13.93
          ],
          [
            41.845,
            14.9075
          ],
          [
            41.333125,
            16.080625
          ],
          [
            39.335,
            19.91
          ],
          [
            38.5675,
            21.2475
          ],
          [
            35.14625,
            25.55375
          ],
          [
            34.525,
            26.955
          ],
          [
            34.2525,
            27.595
          ],
          [
            33.555,
            28.145
          ],
          [
            32.9275,
            29.05875
          ],
          [
            32.475625,
            29.70875
          ],
          [
            32.302422,
            31.474844
          ],
          [
            30.63,
            32.190625
          ],
          [
            28.79875,
            32.65625
          ],
          [
            27.385,
            32.965
          ],
          [
            26.22625,
            33.51
          ],
          [
            25.16,
            33.56
          ],
          [
            23.94,
            33.89
          ],
          [
            23.365,
            33.8975
          ],
          [
            22.63,
            34.24
          ],
          [
            21.47,
            34.555
          ],
          [
            20.23,
            34.885
          ],
          [
            17.968125,
            35.618906
          ],
          [
            16.91125,
            36.065
          ],
          [
            16.193359,
            36.34
          ],
          [
            15.139585,
            36.333912
          ],
          [
            14.270904,
            36.337804
          ],
          [
            13.361899,
            36.445846
          ],
          [
            12.833621,
            36.888984
          ],
          [
            12.292808,
            37.579055
          ],
          [
            11.397354,
            37.949727
          ],
          [
            10.858716,
            38.003062
          ],
          [
            10.004844,
            38.133281
          ],
          [
            8.524717,
            38.031367
          ],
          [
            7.417422,
            37.676133
          ],
          [
            6.665508,
            37.4325
          ],
          [
            5.84005,
            37.264072
          ],
          [
            5.33,
            37.16
          ],
          [
            3.178281,
            36.942656
          ],
          [
            0.52,
            36.50375
          ],
          [
            -0.422031,
            36.475469
          ],
          [
            -2.61125,
            35.966875
          ],
          [
            -3.1125,
            35.9125
          ],
          [
            -3.746934,
            35.849805
          ],
          [
            -5.423243952255126,
            35.92921929131445
          ],
          [
            -6.207661,
            35.779023
          ],
          [
            -6.731768,
            35.691895
          ],
          [
            -7.862709,
            35.709449
          ],
          [
            -8.84625,
            36.213555
          ],
          [
            -9.73,
            36.414062
          ],
          [
            -10.967578,
            36.809023
          ],
          [
            -12.371016,
            36.792812
          ],
          [
            -14.51,
            37.1525
          ],
          [
            -15.01125,
            37.20625
          ],
          [
            -20,
            37.7125
          ],
          [
            -22.18125,
            37.8475
          ],
          [
            -25.065781,
            37.632266
          ],
          [
            -25.054191,
            37.632266
          ],
          [
            -25.479191,
            37.632266
          ],
          [
            -25.504191,
            37.657266
          ],
          [
            -25.554191,
            37.657266
          ],
          [
            -25.629191,
            37.707266
          ],
          [
            -25.704191,
            37.707266
          ],
          [
            -25.754191,
            37.757266
          ],
          [
            -25.804191,
            37.774204
          ],
          [
            -29.995,
            37.93
          ],
          [
            -32.34375,
            37.8475
          ],
          [
            -37.315,
            37.52
          ],
          [
            -40,
            37.29
          ],
          [
            -43.435,
            36.83
          ],
          [
            -46.21,
            36.465
          ],
          [
            -50,
            35.755
          ],
          [
            -54.5025,
            34.8975
          ],
          [
            -55.87,
            34.4975
          ],
          [
            -60,
            33.34
          ],
          [
            -63.305,
            32.1925
          ],
          [
            -64.498535,
            32.136699
          ],
          [
            -65.913125,
            31.725
          ],
          [
            -67.51875,
            30.995
          ],
          [
            -68.6825,
            30.53
          ],
          [
            -69.31875,
            30.13625
          ],
          [
            -70,
            30
          ],
          [
            -70.49,
            29.805
          ],
          [
            -71.255,
            29.5
          ],
          [
            -71.81,
            29.28
          ],
          [
            -73.07,
            28.78
          ],
          [
            -73.97,
            28.480625
          ],
          [
            -74.5475,
            27.918125
          ],
          [
            -75.8725,
            26.9025
          ],
          [
            -76.583594,
            26.276406
          ],
          [
            -77.035,
            25.8475
          ],
          [
            -78.2,
            25.58
          ],
          [
            -80.1775,
            25.0775
          ],
          [
            -80.97875,
            24.59125
          ],
          [
            -82.011875,
            24.220625
          ],
          [
            -82.7,
            24.3
          ],
          [
            -84.5325,
            24.9425
          ],
          [
            -85.855,
            25.865
          ],
          [
            -86.76875,
            26.3
          ],
          [
            -87.315,
            26.4425
          ],
          [
            -88.415,
            27.1275
          ],
          [
            -89.86,
            27.655
          ],
          [
            -90.38,
            28
          ],
          [
            -91.64,
            28.575
          ],
          [
            -92.374375,
            28.6525
          ],
          [
            -93.454375,
            29.25125
          ],
          [
            -94.54,
            29.176875
          ],
          [
            -94.54,
            29.1769
          ]
        ]
      }
    },
    {
      "type": "Feature",
      "properties": {
        "id": "africa",
        "mode": "world",
        "role": "gas",
        "weight": 2.5,
        "label": "海湾能源至非洲",
        "dashArray": "6 8",
        "lengthNm": 4824,
        "source": "searoute-ts 2.0 / Eurostat marnet 2025",
        "validation": {
          "coastline": "Natural Earth 1:10m land",
          "repairedEdges": 2,
          "canalEdges": 0,
          "status": "water-only-except-declared-canals"
        }
      },
      "geometry": {
        "type": "LineString",
        "coordinates": [
          [
            56.355,
            26.4475
          ],
          [
            56.43,
            26.395
          ],
          [
            56.505,
            26.395
          ],
          [
            56.905,
            25.995
          ],
          [
            56.905,
            25.92
          ],
          [
            57.28,
            25.545
          ],
          [
            57.28,
            25.495
          ],
          [
            57.305,
            25.47
          ],
          [
            58.9425,
            24.045
          ],
          [
            60.4,
            22.7
          ],
          [
            59,
            20
          ],
          [
            57.925,
            18.69
          ],
          [
            54.185,
            14.03
          ],
          [
            52.925,
            12.405
          ],
          [
            52.3,
            11.6
          ],
          [
            49.39125,
            4.9775
          ],
          [
            47.8075,
            0.7475
          ],
          [
            47.045,
            -1.285
          ],
          [
            44.48,
            -8.1
          ],
          [
            44.479375,
            -9.186875
          ],
          [
            44.379375,
            -9.361875
          ],
          [
            44.379375,
            -9.411875
          ],
          [
            44.304375,
            -9.536875
          ],
          [
            44.279375,
            -9.611875
          ],
          [
            44.254375,
            -9.636875
          ],
          [
            44.254375,
            -9.686875
          ],
          [
            44.229375,
            -9.711875
          ],
          [
            44.229375,
            -9.736875
          ],
          [
            43.204375,
            -10.761875
          ],
          [
            43.204375,
            -11.711875
          ],
          [
            43.179375,
            -11.736875
          ],
          [
            43.179375,
            -11.811875
          ],
          [
            43.204375,
            -11.836875
          ],
          [
            43.204375,
            -11.886875
          ],
          [
            43.229375,
            -11.911875
          ],
          [
            41.7,
            -15
          ],
          [
            36,
            -24
          ],
          [
            34,
            -26
          ],
          [
            33.6975,
            -26.59
          ],
          [
            32,
            -30
          ],
          [
            28.5,
            -33.5
          ],
          [
            26.055,
            -34.52375
          ],
          [
            18,
            -35
          ],
          [
            17.430312,
            -34.205938
          ],
          [
            18.425,
            -33.875
          ],
          [
            18.4425,
            -33.87834936490539
          ]
        ]
      }
    },
    {
      "type": "Feature",
      "properties": {
        "id": "oceania",
        "mode": "world",
        "role": "gas",
        "weight": 2.5,
        "label": "海湾能源至大洋洲",
        "dashArray": "6 8",
        "lengthNm": 5052,
        "source": "searoute-ts 2.0 / Eurostat marnet 2025",
        "validation": {
          "coastline": "Natural Earth 1:10m land",
          "repairedEdges": 3,
          "canalEdges": 0,
          "status": "water-only-except-declared-canals"
        }
      },
      "geometry": {
        "type": "LineString",
        "coordinates": [
          [
            56.355,
            26.4475
          ],
          [
            56.43,
            26.395
          ],
          [
            56.505,
            26.395
          ],
          [
            56.905,
            25.995
          ],
          [
            56.905,
            25.92
          ],
          [
            57.28,
            25.545
          ],
          [
            57.28,
            25.495
          ],
          [
            57.305,
            25.47
          ],
          [
            58.9425,
            24.045
          ],
          [
            60.4,
            22.7
          ],
          [
            61.655,
            21.5
          ],
          [
            63.155,
            20.065
          ],
          [
            65.095,
            18.14
          ],
          [
            65.815,
            17.41
          ],
          [
            66.53,
            16.68
          ],
          [
            68.8,
            14.68
          ],
          [
            70,
            13.765
          ],
          [
            73.05,
            10.725
          ],
          [
            73.125,
            10.7
          ],
          [
            73.35,
            10.575
          ],
          [
            73.4,
            10.575
          ],
          [
            73.625,
            10.45
          ],
          [
            73.675,
            10.45
          ],
          [
            73.9,
            10.325
          ],
          [
            73.95,
            10.325
          ],
          [
            74.175,
            10.2
          ],
          [
            74.225,
            10.2
          ],
          [
            74.45,
            10.075
          ],
          [
            74.5,
            10.075
          ],
          [
            74.725,
            9.95
          ],
          [
            74.775,
            9.95
          ],
          [
            75.0,
            9.825
          ],
          [
            75.05,
            9.825
          ],
          [
            75.075,
            9.8
          ],
          [
            75.25,
            9.725
          ],
          [
            75.275,
            9.7
          ],
          [
            75.3,
            9.7
          ],
          [
            77,
            8
          ],
          [
            78.063125,
            7.211875
          ],
          [
            79.5925,
            6.045
          ],
          [
            80.1,
            5.8
          ],
          [
            81.949023,
            6.088516
          ],
          [
            90,
            0
          ],
          [
            92.505,
            -2.545
          ],
          [
            95.35,
            -5.405
          ],
          [
            98.87,
            -8.89
          ],
          [
            100.015,
            -10.006875
          ],
          [
            104.6025,
            -15.065
          ],
          [
            109.735,
            -20.375
          ],
          [
            111.7475,
            -22.3
          ],
          [
            113,
            -23.5
          ],
          [
            112.8025,
            -25.02
          ],
          [
            112.8025,
            -26.375
          ],
          [
            112.8525,
            -26.45
          ],
          [
            112.8525,
            -26.5
          ],
          [
            112.9275,
            -26.625
          ],
          [
            112.9525,
            -26.7
          ],
          [
            113.9775,
            -27.725
          ],
          [
            113.9775,
            -28.975
          ],
          [
            114.0,
            -29.0
          ],
          [
            115.6,
            -32
          ]
        ]
      }
    },
    {
      "type": "Feature",
      "properties": {
        "id": "focusDestination",
        "mode": "focus",
        "role": "oil",
        "weight": 3.2,
        "label": "YUAN GUI YANG · 依据 CN SDG 推定",
        "dashArray": "9 10",
        "lengthNm": 5974,
        "source": "searoute-ts 2.0 / Eurostat marnet 2025",
        "validation": {
          "coastline": "Natural Earth 1:10m land",
          "repairedEdges": 8,
          "canalEdges": 0,
          "status": "water-only-except-declared-canals"
        }
      },
      "geometry": {
        "type": "LineString",
        "coordinates": [
          [
            54.58328,
            25.22172
          ],
          [
            55.345,
            25.60125
          ],
          [
            56.355,
            26.4475
          ],
          [
            56.43,
            26.395
          ],
          [
            56.505,
            26.395
          ],
          [
            56.905,
            25.995
          ],
          [
            56.905,
            25.92
          ],
          [
            57.28,
            25.545
          ],
          [
            57.28,
            25.495
          ],
          [
            57.305,
            25.47
          ],
          [
            58.9425,
            24.045
          ],
          [
            60.4,
            22.7
          ],
          [
            61.655,
            21.5
          ],
          [
            63.155,
            20.065
          ],
          [
            65.095,
            18.14
          ],
          [
            65.815,
            17.41
          ],
          [
            66.53,
            16.68
          ],
          [
            68.8,
            14.68
          ],
          [
            70,
            13.765
          ],
          [
            73.05,
            10.725
          ],
          [
            73.125,
            10.7
          ],
          [
            73.35,
            10.575
          ],
          [
            73.4,
            10.575
          ],
          [
            73.625,
            10.45
          ],
          [
            73.675,
            10.45
          ],
          [
            73.9,
            10.325
          ],
          [
            73.95,
            10.325
          ],
          [
            74.175,
            10.2
          ],
          [
            74.225,
            10.2
          ],
          [
            74.45,
            10.075
          ],
          [
            74.5,
            10.075
          ],
          [
            74.725,
            9.95
          ],
          [
            74.775,
            9.95
          ],
          [
            75.0,
            9.825
          ],
          [
            75.05,
            9.825
          ],
          [
            75.075,
            9.8
          ],
          [
            75.25,
            9.725
          ],
          [
            75.275,
            9.7
          ],
          [
            75.3,
            9.7
          ],
          [
            77,
            8
          ],
          [
            78.063125,
            7.211875
          ],
          [
            79.5925,
            6.045
          ],
          [
            80.1,
            5.8
          ],
          [
            81.949023,
            6.088516
          ],
          [
            94,
            6.7
          ],
          [
            97,
            7
          ],
          [
            101.198125,
            3.055937
          ],
          [
            101.198125,
            2.93
          ],
          [
            101.273125,
            2.855
          ],
          [
            101.273125,
            2.83
          ],
          [
            101.573125,
            2.53
          ],
          [
            101.673125,
            2.53
          ],
          [
            102.223125,
            1.98
          ],
          [
            102.273125,
            1.98
          ],
          [
            102.423125,
            1.83
          ],
          [
            102.448125,
            1.83
          ],
          [
            102.673125,
            1.705
          ],
          [
            102.723125,
            1.705
          ],
          [
            102.748125,
            1.68
          ],
          [
            102.773125,
            1.68
          ],
          [
            102.798125,
            1.655
          ],
          [
            102.823125,
            1.655
          ],
          [
            102.848125,
            1.63
          ],
          [
            102.9675,
            1.58
          ],
          [
            102.9925,
            1.54875
          ],
          [
            103.0175,
            1.54875
          ],
          [
            103.1425,
            1.47375
          ],
          [
            103.1925,
            1.47375
          ],
          [
            103.2175,
            1.44875
          ],
          [
            103.2425,
            1.44875
          ],
          [
            103.4175,
            1.27375
          ],
          [
            103.4925,
            1.27375
          ],
          [
            103.5175,
            1.24875
          ],
          [
            103.6675,
            1.24875
          ],
          [
            103.6925,
            1.22375
          ],
          [
            103.725,
            1.22375
          ],
          [
            103.825,
            1.22375
          ],
          [
            103.95,
            1.29875
          ],
          [
            104.075,
            1.29875
          ],
          [
            104.1,
            1.32375
          ],
          [
            104.225,
            1.32375
          ],
          [
            104.25,
            1.34875
          ],
          [
            104.275,
            1.34875
          ],
          [
            104.4,
            1.47375
          ],
          [
            104.425,
            1.47375
          ],
          [
            104.5,
            1.54875
          ],
          [
            104.525,
            1.54875
          ],
          [
            104.55,
            1.57375
          ],
          [
            104.6,
            1.57375
          ],
          [
            104.619766,
            1.608203
          ],
          [
            106.47,
            5.725
          ],
          [
            110.075,
            11.44
          ],
          [
            110.300234,
            12.173516
          ],
          [
            111.83,
            16.38
          ],
          [
            112.045,
            16.955
          ],
          [
            113.2,
            19.62
          ],
          [
            114.18125,
            21.735
          ],
          [
            116.97,
            22.985
          ],
          [
            116.995,
            23
          ],
          [
            118.23125,
            24.365938
          ],
          [
            118.33125,
            24.365938
          ],
          [
            118.35625,
            24.390938
          ],
          [
            118.45625,
            24.390938
          ],
          [
            118.55625,
            24.490938
          ],
          [
            118.63125,
            24.515938
          ],
          [
            118.70625,
            24.590938
          ],
          [
            118.95625,
            24.590938
          ],
          [
            119.50625,
            25.140938
          ],
          [
            119.55625,
            25.140938
          ],
          [
            119.90625,
            25.490938
          ],
          [
            119.98125,
            25.515938
          ],
          [
            120.00625,
            25.540938
          ],
          [
            120.05625,
            25.540938
          ],
          [
            120.0875,
            25.56125
          ],
          [
            121.3,
            27.8
          ],
          [
            121.325,
            27.825
          ],
          [
            121.325,
            27.85
          ],
          [
            121.4,
            27.925
          ],
          [
            121.4,
            27.95
          ],
          [
            121.45,
            28.025
          ],
          [
            121.45,
            28.075
          ],
          [
            121.65,
            28.275
          ],
          [
            121.65,
            28.3
          ],
          [
            121.675,
            28.325
          ],
          [
            121.675,
            28.55
          ],
          [
            121.7,
            28.575
          ],
          [
            121.7,
            28.625
          ],
          [
            121.825,
            28.85
          ],
          [
            121.825,
            28.9
          ],
          [
            121.85,
            28.925
          ],
          [
            121.85,
            28.95
          ],
          [
            121.975,
            29.075
          ],
          [
            121.975,
            29.2
          ],
          [
            122.025,
            29.25
          ],
          [
            122.025,
            29.325
          ],
          [
            122.075,
            29.4
          ],
          [
            122.075,
            29.45
          ],
          [
            122.3,
            29.675
          ],
          [
            122.3,
            29.7
          ],
          [
            122.425,
            29.825
          ],
          [
            122.425,
            30.025
          ],
          [
            122.4,
            30.05
          ],
          [
            122.375,
            30.05
          ],
          [
            122.35,
            30.025
          ],
          [
            122.35,
            30.0
          ],
          [
            122.316651,
            29.98
          ],
          [
            122.341651,
            30.005
          ],
          [
            122.341651,
            30.08
          ],
          [
            122.391651,
            30.13
          ],
          [
            122.391651,
            30.205
          ],
          [
            122.441651,
            30.255
          ],
          [
            122.441651,
            30.53
          ],
          [
            122.466651,
            30.555
          ],
          [
            122.466651,
            30.605
          ],
          [
            122.566651,
            30.705
          ],
          [
            122.566651,
            30.805
          ],
          [
            122.591651,
            30.83
          ],
          [
            122.591651,
            30.88
          ],
          [
            122.691651,
            31.055
          ],
          [
            122.691651,
            31.105
          ],
          [
            122.71375,
            31.1375
          ],
          [
            121.98,
            32.965
          ],
          [
            121.47,
            34.765
          ],
          [
            121.035,
            35.92
          ],
          [
            120.27,
            36.03
          ],
          [
            120.5,
            35.96
          ]
        ]
      }
    }
  ],
  "landValidation": {
    "coastline": "https://raw.githubusercontent.com/nvkelso/natural-earth-vector/master/geojson/ne_10m_land.geojson",
    "gridDegrees": 0.025,
    "clearanceDegrees": 0.012,
    "declaredCanals": [
      "Suez"
    ]
  }
}